CCSDS_OMM_VERS = 2.0
CREATION_DATE  = 
ORIGINATOR     = 

OBJECT_NAME    = SL-14 R/B
OBJECT_ID      = 1991-042B
CENTER_NAME    = EARTH
REF_FRAME      = TEME
TIME_SYSTEM    = UTC
MEAN_ELEMENT_THEORY = SGP/SGP4

EPOCH          = 2026-02-09T14:22:54.030144
MEAN_MOTION    = 14.81802205
ECCENTRICITY   = .0016499
INCLINATION    = 82.4897
RA_OF_ASC_NODE = 246.5297
ARG_OF_PERICENTER = 338.3837
MEAN_ANOMALY   = 21.6678

EPHEMERIS_TYPE = 0
CLASSIFICATION_TYPE = U
NORAD_CAT_ID   = 21423
ELEMENT_SET_NO = 999
REV_AT_EPOCH   = 84891
BSTAR          = .51467458E-4
MEAN_MOTION_DOT = .43E-5
MEAN_MOTION_DDOT = 0

CCSDS_OMM_VERS = 2.0
CREATION_DATE  = 
ORIGINATOR     = 

OBJECT_NAME    = ERS-1
OBJECT_ID      = 1991-050A
CENTER_NAME    = EARTH
REF_FRAME      = TEME
TIME_SYSTEM    = UTC
MEAN_ELEMENT_THEORY = SGP/SGP4

EPOCH          = 2026-02-09T14:45:09.719712
MEAN_MOTION    = 14.39426105
ECCENTRICITY   = .00309251
INCLINATION    = 98.7896
RA_OF_ASC_NODE = 58.1432
ARG_OF_PERICENTER = 286.1396
MEAN_ANOMALY   = 73.6387

EPHEMERIS_TYPE = 0
CLASSIFICATION_TYPE = U
NORAD_CAT_ID   = 21574
ELEMENT_SET_NO = 999
REV_AT_EPOCH   = 81169
BSTAR          = .13950603E-3
MEAN_MOTION_DOT = .39E-5
MEAN_MOTION_DDOT = 0

CCSDS_OMM_VERS = 2.0
CREATION_DATE  = 
ORIGINATOR     = 

OBJECT_NAME    = ARIANE 40 R/B
OBJECT_ID      = 1991-050F
CENTER_NAME    = EARTH
REF_FRAME      = TEME
TIME_SYSTEM    = UTC
MEAN_ELEMENT_THEORY = SGP/SGP4

EPOCH          = 2026-02-09T14:14:56.195808
MEAN_MOTION    = 14.42872594
ECCENTRICITY   = .00038176
INCLINATION    = 98.2074
RA_OF_ASC_NODE = 93.8764
ARG_OF_PERICENTER = 143.4165
MEAN_ANOMALY   = 216.7287

EPHEMERIS_TYPE = 0
CLASSIFICATION_TYPE = U
NORAD_CAT_ID   = 21610
ELEMENT_SET_NO = 999
REV_AT_EPOCH   = 81494
BSTAR          = .11686615E-3
MEAN_MOTION_DOT = .349E-5
MEAN_MOTION_DDOT = 0

CCSDS_OMM_VERS = 2.0
CREATION_DATE  = 
ORIGINATOR     = 

OBJECT_NAME    = INTERCOSMOS 25
OBJECT_ID      = 1991-086A
CENTER_NAME    = EARTH
REF_FRAME      = TEME
TIME_SYSTEM    = UTC
MEAN_ELEMENT_THEORY = SGP/SGP4

EPOCH          = 2026-02-09T06:09:09.961056
MEAN_MOTION    = 12.11920357
ECCENTRICITY   = .1486777
INCLINATION    = 82.6085
RA_OF_ASC_NODE = 327.1899
ARG_OF_PERICENTER = 178.1859
MEAN_ANOMALY   = 182.5555

EPHEMERIS_TYPE = 0
CLASSIFICATION_TYPE = U
NORAD_CAT_ID   = 21819
ELEMENT_SET_NO = 999
REV_AT_EPOCH   = 49324
BSTAR          = .28117E-3
MEAN_MOTION_DOT = .1448E-4
MEAN_MOTION_DDOT = 0

CCSDS_OMM_VERS = 2.0
CREATION_DATE  = 
ORIGINATOR     = 

OBJECT_NAME    = SL-8 R/B
OBJECT_ID      = 1992-008B
CENTER_NAME    = EARTH
REF_FRAME      = TEME
TIME_SYSTEM    = UTC
MEAN_ELEMENT_THEORY = SGP/SGP4

EPOCH          = 2026-02-09T15:40:21.526752
MEAN_MOTION    = 13.75969688
ECCENTRICITY   = .00338747
INCLINATION    = 82.9261
RA_OF_ASC_NODE = 288.6358
ARG_OF_PERICENTER = 211.3105
MEAN_ANOMALY   = 209.7534

EPHEMERIS_TYPE = 0
CLASSIFICATION_TYPE = U
NORAD_CAT_ID   = 21876
ELEMENT_SET_NO = 999
REV_AT_EPOCH   = 70556
BSTAR          = .22789622E-4
MEAN_MOTION_DOT = .37E-6
MEAN_MOTION_DDOT = 0

CCSDS_OMM_VERS = 2.0
CREATION_DATE  = 
ORIGINATOR     = 

OBJECT_NAME    = SL-8 R/B
OBJECT_ID      = 1992-020B
CENTER_NAME    = EARTH
REF_FRAME      = TEME
TIME_SYSTEM    = UTC
MEAN_ELEMENT_THEORY = SGP/SGP4

EPOCH          = 2026-02-09T11:19:07.536000
MEAN_MOTION    = 13.75545374
ECCENTRICITY   = .00292606
INCLINATION    = 82.9331
RA_OF_ASC_NODE = 174.7060
ARG_OF_PERICENTER = 19.1496
MEAN_ANOMALY   = 53.1263

EPHEMERIS_TYPE = 0
CLASSIFICATION_TYPE = U
NORAD_CAT_ID   = 21938
ELEMENT_SET_NO = 999
REV_AT_EPOCH   = 69725
BSTAR          = .12753577E-3
MEAN_MOTION_DOT = .138E-5
MEAN_MOTION_DDOT = 0

CCSDS_OMM_VERS = 2.0
CREATION_DATE  = 
ORIGINATOR     = 

OBJECT_NAME    = USA 81
OBJECT_ID      = 1992-023A
CENTER_NAME    = EARTH
REF_FRAME      = TEME
TIME_SYSTEM    = UTC
MEAN_ELEMENT_THEORY = SGP/SGP4

EPOCH          = 2026-02-09T08:47:30.283872
MEAN_MOTION    = 14.32357562
ECCENTRICITY   = .00026261
INCLINATION    = 85.0120
RA_OF_ASC_NODE = 147.7727
ARG_OF_PERICENTER = 102.9409
MEAN_ANOMALY   = 257.2077

EPHEMERIS_TYPE = 0
CLASSIFICATION_TYPE = U
NORAD_CAT_ID   = 21949
ELEMENT_SET_NO = 999
REV_AT_EPOCH   = 9073
BSTAR          = .86226202E-4
MEAN_MOTION_DOT = .253E-5
MEAN_MOTION_DDOT = 0

CCSDS_OMM_VERS = 2.0
CREATION_DATE  = 
ORIGINATOR     = 

OBJECT_NAME    = COSMOS 2219
OBJECT_ID      = 1992-076A
CENTER_NAME    = EARTH
REF_FRAME      = TEME
TIME_SYSTEM    = UTC
MEAN_ELEMENT_THEORY = SGP/SGP4

EPOCH          = 2026-02-09T12:12:19.990944
MEAN_MOTION    = 14.14076488
ECCENTRICITY   = .00202911
INCLINATION    = 71.0582
RA_OF_ASC_NODE = 76.9836
ARG_OF_PERICENTER = 245.6996
MEAN_ANOMALY   = 114.2008

EPHEMERIS_TYPE = 0
CLASSIFICATION_TYPE = U
NORAD_CAT_ID   = 22219
ELEMENT_SET_NO = 999
REV_AT_EPOCH   = 71439
BSTAR          = -.14906011E-4
MEAN_MOTION_DOT = -.76E-6
MEAN_MOTION_DDOT = 0

CCSDS_OMM_VERS = 2.0
CREATION_DATE  = 
ORIGINATOR     = 

OBJECT_NAME    = SL-16 R/B
OBJECT_ID      = 1992-076B
CENTER_NAME    = EARTH
REF_FRAME      = TEME
TIME_SYSTEM    = UTC
MEAN_ELEMENT_THEORY = SGP/SGP4

EPOCH          = 2026-02-09T14:21:14.562144
MEAN_MOTION    = 14.16855920
ECCENTRICITY   = .00114451
INCLINATION    = 70.9979
RA_OF_ASC_NODE = 247.5488
ARG_OF_PERICENTER = 146.6286
MEAN_ANOMALY   = 275.7770

EPHEMERIS_TYPE = 0
CLASSIFICATION_TYPE = U
NORAD_CAT_ID   = 22220
ELEMENT_SET_NO = 999
REV_AT_EPOCH   = 71785
BSTAR          = .28597536E-4
MEAN_MOTION_DOT = .9E-7
MEAN_MOTION_DDOT = 0

CCSDS_OMM_VERS = 2.0
CREATION_DATE  = 
ORIGINATOR     = 

OBJECT_NAME    = COSMOS 2221
OBJECT_ID      = 1992-080A
CENTER_NAME    = EARTH
REF_FRAME      = TEME
TIME_SYSTEM    = UTC
MEAN_ELEMENT_THEORY = SGP/SGP4

EPOCH          = 2026-02-09T05:07:01.819200
MEAN_MOTION    = 14.96087806
ECCENTRICITY   = .0012913
INCLINATION    = 82.5055
RA_OF_ASC_NODE = 306.3535
ARG_OF_PERICENTER = 291.8320
MEAN_ANOMALY   = 68.1528

EPHEMERIS_TYPE = 0
CLASSIFICATION_TYPE = U
NORAD_CAT_ID   = 22236
ELEMENT_SET_NO = 999
REV_AT_EPOCH   = 77653
BSTAR          = .23143E-3
MEAN_MOTION_DOT = .263E-4
MEAN_MOTION_DDOT = 0

CCSDS_OMM_VERS = 2.0
CREATION_DATE  = 
ORIGINATOR     = 

OBJECT_NAME    = SL-16 R/B
OBJECT_ID      = 1992-093B
CENTER_NAME    = EARTH
REF_FRAME      = TEME
TIME_SYSTEM    = UTC
MEAN_ELEMENT_THEORY = SGP/SGP4

EPOCH          = 2026-02-09T11:18:50.282784
MEAN_MOTION    = 14.15441002
ECCENTRICITY   = .00051629
INCLINATION    = 71.0200
RA_OF_ASC_NODE = 63.5052
ARG_OF_PERICENTER = 323.4452
MEAN_ANOMALY   = 36.6318

EPHEMERIS_TYPE = 0
CLASSIFICATION_TYPE = U
NORAD_CAT_ID   = 22285
ELEMENT_SET_NO = 999
REV_AT_EPOCH   = 70916
BSTAR          = .4095202E-5
MEAN_MOTION_DOT = -.4E-6
MEAN_MOTION_DDOT = 0

CCSDS_OMM_VERS = 2.0
CREATION_DATE  = 
ORIGINATOR     = 

OBJECT_NAME    = COSMOS 2228
OBJECT_ID      = 1992-094A
CENTER_NAME    = EARTH
REF_FRAME      = TEME
TIME_SYSTEM    = UTC
MEAN_ELEMENT_THEORY = SGP/SGP4

EPOCH          = 2026-02-09T13:58:38.247168
MEAN_MOTION    = 14.97060565
ECCENTRICITY   = .00190101
INCLINATION    = 82.5156
RA_OF_ASC_NODE = 264.2258
ARG_OF_PERICENTER = 40.1938
MEAN_ANOMALY   = 320.0686

EPHEMERIS_TYPE = 0
CLASSIFICATION_TYPE = U
NORAD_CAT_ID   = 22286
ELEMENT_SET_NO = 999
REV_AT_EPOCH   = 77185
BSTAR          = .16118101E-3
MEAN_MOTION_DOT = .189E-4
MEAN_MOTION_DDOT = 0

