SL-14 R/B               
1 21423U 91042B   26040.59923646  .00000430  00000+0  51467-4 0  9997
2 21423  82.4897 246.5297 0016499 338.3837  21.6678 14.81802205848912
ERS-1                   
1 21574U 91050A   26040.61469583  .00000390  00000+0  13951-3 0  9991
2 21574  98.7896  58.1432 0030925 286.1396  73.6387 14.39426105811699
ARIANE 40 R/B           
1 21610U 91050F   26040.59370597  .00000349  00000+0  11687-3 0  9993
2 21610  98.2074  93.8764 0003817 143.4165 216.7287 14.42872594814947
INTERCOSMOS 25          
1 21819U 91086A   26040.25636529  .00001448  00000+0  28117-3 0  9993
2 21819  82.6085 327.1899 1486777 178.1859 182.5555 12.11920357493244
SL-8 R/B                
1 21876U 92008B   26040.65302693  .00000037  00000+0  22790-4 0  9992
2 21876  82.9261 288.6358 0033874 211.3105 209.7534 13.75969688705567
SL-8 R/B                
1 21938U 92020B   26040.47161500  .00000138  00000+0  12754-3 0  9995
2 21938  82.9331 174.7060 0029260  19.1496  53.1263 13.75545374697258
USA 81                  
1 21949U 92023A   26040.36632273  .00000253  00000+0  86226-4 0  9992
2 21949  85.0120 147.7727 0002626 102.9409 257.2077 14.32357562 90736
COSMOS 2219             
1 22219U 92076A   26040.50856471 -.00000076  00000+0 -14906-4 0  9996
2 22219  71.0582  76.9836 0020291 245.6996 114.2008 14.14076488714398
SL-16 R/B               
1 22220U 92076B   26040.59808521  .00000009  00000+0  28598-4 0  9996
2 22220  70.9979 247.5488 0011445 146.6286 275.7770 14.16855920717851
COSMOS 2221             
1 22236U 92080A   26040.21321550  .00002630  00000+0  23143-3 0  9991
2 22236  82.5055 306.3535 0012913 291.8320  68.1528 14.96087806776535
SL-16 R/B               
1 22285U 92093B   26040.47141531 -.00000040  00000+0  40952-5 0  9999
2 22285  71.0200  63.5052 0005162 323.4452  36.6318 14.15441002709161
COSMOS 2228             
1 22286U 92094A   26040.58238712  .00001890  00000+0  16118-3 0  9999
2 22286  82.5156 264.2258 0019010  40.1938 320.0686 14.97060565771850
